start=new Date('2023-03-20T00:00:00.000Z').valueOf();
sats=[{"RA_OF_ASC_NODE":"114.0252","CENTER_NAME":"EARTH","PERIAPSIS":"382.606","INCLINATION":"43.0013","TLE_LINE1":"1 55468U 23015V   23078.91667824 -.00868121  00000-0 -10819-1 0  9990","BSTAR":"-0.01081900000000","MEAN_MOTION_DDOT":"0.0000000000000","OBJECT_TYPE":"PAYLOAD","TLE_LINE2":"2 55468  43.0013 114.0252 0001319 262.4637 299.4703 15.61440241  1306","MEAN_MOTION":"15.61440241","FILE":"3865354","APOAPSIS":"384.390","ELEMENT_SET_NO":"999","MEAN_ELEMENT_THEORY":"SGP4","LAUNCH_DATE":"2023-02-02","ARG_OF_PERICENTER":"262.4637","DECAY_DATE":null,"EPOCH":"2023-03-19T22:00:00.999936","MEAN_MOTION_DOT":"-0.00868121","OBJECT_NAME":"STARLINK-5672","NORAD_CAT_ID":"55468","SEMIMAJOR_AXIS":"6761.633","PERIOD":"92.223","EPHEMERIS_TYPE":"0","RCS_SIZE":"LARGE","CLASSIFICATION_TYPE":"U","SITE":"AFETR","COUNTRY_CODE":"US","ECCENTRICITY":"0.00013190","GP_ID":"228479250","REV_AT_EPOCH":"130","REF_FRAME":"TEME","TIME_SYSTEM":"UTC","MEAN_ANOMALY":"299.4703","OBJECT_ID":"2023-015V"},{"DECAY_DATE":null,"ARG_OF_PERICENTER":"267.6183","EPOCH":"2023-03-19T22:00:00.999936","MEAN_ELEMENT_THEORY":"SGP4","LAUNCH_DATE":"2023-02-02","ELEMENT_SET_NO":"999","APOAPSIS":"384.477","FILE":"3865354","MEAN_MOTION":"15.61407743","TLE_LINE2":"2 55469  43.0009 114.0297 0001309 267.6183 292.5228 15.61407743  1309","OBJECT_TYPE":"PAYLOAD","MEAN_MOTION_DDOT":"0.0000000000000","BSTAR":"-0.01084000000000","TLE_LINE1":"1 55469U 23015W   23078.91667824 -.00868652  00000-0 -10840-1 0  9994","PERIAPSIS":"382.707","CENTER_NAME":"EARTH","INCLINATION":"43.0009","RA_OF_ASC_NODE":"114.0297","MEAN_ANOMALY":"292.5228","OBJECT_ID":"2023-015W","TIME_SYSTEM":"UTC","REF_FRAME":"TEME","REV_AT_EPOCH":"130","GP_ID":"228480002","ECCENTRICITY":"0.00013090","SITE":"AFETR","COUNTRY_CODE":"US","RCS_SIZE":"LARGE","CLASSIFICATION_TYPE":"U","PERIOD":"92.224","EPHEMERIS_TYPE":"0","SEMIMAJOR_AXIS":"6761.727","OBJECT_NAME":"STARLINK-5681","NORAD_CAT_ID":"55469","MEAN_MOTION_DOT":"-0.00868652"},{"MEAN_ANOMALY":"293.9252","OBJECT_ID":"2023-015X","TIME_SYSTEM":"UTC","REF_FRAME":"TEME","GP_ID":"228480751","REV_AT_EPOCH":"130","RCS_SIZE":"LARGE","CLASSIFICATION_TYPE":"U","PERIOD":"92.221","EPHEMERIS_TYPE":"0","SEMIMAJOR_AXIS":"6761.579","OBJECT_NAME":"STARLINK-5708","NORAD_CAT_ID":"55470","MEAN_MOTION_DOT":"-0.00871268","ECCENTRICITY":"0.00012900","SITE":"AFETR","COUNTRY_CODE":"US","ELEMENT_SET_NO":"999","APOAPSIS":"384.316","FILE":"3865354","ARG_OF_PERICENTER":"268.9032","DECAY_DATE":null,"EPOCH":"2023-03-19T22:00:00.999936","MEAN_ELEMENT_THEORY":"SGP4","LAUNCH_DATE":"2023-02-02","BSTAR":"-0.01085400000000","MEAN_MOTION_DDOT":"0.0000000000000","TLE_LINE1":"1 55470U 23015X   23078.91667824 -.00871268  00000-0 -10854-1 0  9998","CENTER_NAME":"EARTH","PERIAPSIS":"382.572","INCLINATION":"43.0010","RA_OF_ASC_NODE":"114.0227","MEAN_MOTION":"15.61459025","TLE_LINE2":"2 55470  43.0010 114.0227 0001290 268.9032 293.9252 15.61459025  1304","OBJECT_TYPE":"PAYLOAD"},{"ELEMENT_SET_NO":"999","APOAPSIS":"384.318","FILE":"3865354","EPOCH":"2023-03-19T22:00:00.999936","ARG_OF_PERICENTER":"270.0912","DECAY_DATE":null,"MEAN_ELEMENT_THEORY":"SGP4","LAUNCH_DATE":"2023-02-02","BSTAR":"-0.01081200000000","MEAN_MOTION_DDOT":"0.0000000000000","TLE_LINE1":"1 55471U 23015Y   23078.91667824 -.00868631  00000-0 -10812-1 0  9993","INCLINATION":"43.0010","PERIAPSIS":"382.489","CENTER_NAME":"EARTH","RA_OF_ASC_NODE":"114.0205","MEAN_MOTION":"15.61472989","TLE_LINE2":"2 55471  43.0010 114.0205 0001352 270.0912 293.6337 15.61472989  1306","OBJECT_TYPE":"PAYLOAD","OBJECT_ID":"2023-015Y","MEAN_ANOMALY":"293.6337","TIME_SYSTEM":"UTC","REF_FRAME":"TEME","GP_ID":"228479501","REV_AT_EPOCH":"130","CLASSIFICATION_TYPE":"U","RCS_SIZE":"LARGE","EPHEMERIS_TYPE":"0","PERIOD":"92.221","SEMIMAJOR_AXIS":"6761.538","NORAD_CAT_ID":"55471","MEAN_MOTION_DOT":"-0.00868631","OBJECT_NAME":"STARLINK-5711","ECCENTRICITY":"0.00013520","COUNTRY_CODE":"US","SITE":"AFETR"},{"APOAPSIS":"356.516","FILE":"3865354","ELEMENT_SET_NO":"999","LAUNCH_DATE":"2023-02-02","MEAN_ELEMENT_THEORY":"SGP4","ARG_OF_PERICENTER":"274.1659","DECAY_DATE":null,"EPOCH":"2023-03-19T19:13:16.866624","PERIAPSIS":"353.665","CENTER_NAME":"EARTH","INCLINATION":"43.0014","RA_OF_ASC_NODE":"114.4893","MEAN_MOTION_DDOT":"0.0000000000000","BSTAR":"-0.00004294300000","TLE_LINE1":"1 55472U 23015Z   23078.80088966 -.00006074  00000-0 -42943-4 0  9994","TLE_LINE2":"2 55472  43.0014 114.4893 0002117 274.1659  85.8967 15.71332265  7311","OBJECT_TYPE":"PAYLOAD","MEAN_MOTION":"15.71332265","REF_FRAME":"TEME","GP_ID":"228479751","REV_AT_EPOCH":"731","MEAN_ANOMALY":"85.8967","OBJECT_ID":"2023-015Z","TIME_SYSTEM":"UTC","SEMIMAJOR_AXIS":"6733.225","MEAN_MOTION_DOT":"-0.00006074","OBJECT_NAME":"STARLINK-5705","NORAD_CAT_ID":"55472","RCS_SIZE":"LARGE","CLASSIFICATION_TYPE":"U","PERIOD":"91.642","EPHEMERIS_TYPE":"0","SITE":"AFETR","COUNTRY_CODE":"US","ECCENTRICITY":"0.00021170"},{"SITE":"AFETR","COUNTRY_CODE":"US","ECCENTRICITY":"0.00013650","NORAD_CAT_ID":"55473","OBJECT_NAME":"STARLINK-5687","MEAN_MOTION_DOT":"-0.00866983","SEMIMAJOR_AXIS":"6761.446","PERIOD":"92.219","EPHEMERIS_TYPE":"0","RCS_SIZE":"LARGE","CLASSIFICATION_TYPE":"U","REV_AT_EPOCH":"130","GP_ID":"228480503","REF_FRAME":"TEME","TIME_SYSTEM":"UTC","MEAN_ANOMALY":"300.0494","OBJECT_ID":"2023-015AA","OBJECT_TYPE":"PAYLOAD","TLE_LINE2":"2 55473  43.0011 114.0160 0001365 265.4643 300.0494 15.61505149  1304","MEAN_MOTION":"15.61505149","RA_OF_ASC_NODE":"114.0160","CENTER_NAME":"EARTH","PERIAPSIS":"382.388","INCLINATION":"43.0011","TLE_LINE1":"1 55473U 23015AA  23078.91667824 -.00866983  00000-0 -10776-1 0  9992","BSTAR":"-0.01077600000000","MEAN_MOTION_DDOT":"0.0000000000000","MEAN_ELEMENT_THEORY":"SGP4","LAUNCH_DATE":"2023-02-02","ARG_OF_PERICENTER":"265.4643","DECAY_DATE":null,"EPOCH":"2023-03-19T22:00:00.999936","FILE":"3865354","APOAPSIS":"384.234","ELEMENT_SET_NO":"999"},{"FILE":"3865354","APOAPSIS":"522.556","ELEMENT_SET_NO":"999","LAUNCH_DATE":"2023-02-02","MEAN_ELEMENT_THEORY":"SGP4","EPOCH":"2023-03-19T22:00:00.999936","DECAY_DATE":null,"ARG_OF_PERICENTER":"276.1451","RA_OF_ASC_NODE":"119.4331","INCLINATION":"42.9991","PERIAPSIS":"520.845","CENTER_NAME":"EARTH","TLE_LINE1":"1 55474U 23015AB  23078.91667824 -.01188078  00000-0 -68511-1 0  9996","BSTAR":"-0.06851100000000","MEAN_MOTION_DDOT":"0.0000000000000","TLE_LINE2":"2 55474  42.9991 119.4331 0001240 276.1451 229.7451 15.14762992  1306","OBJECT_TYPE":"PAYLOAD","MEAN_MOTION":"15.14762992","GP_ID":"228480251","REV_AT_EPOCH":"130","REF_FRAME":"TEME","TIME_SYSTEM":"UTC","OBJECT_ID":"2023-015AB","MEAN_ANOMALY":"229.7451","OBJECT_NAME":"STARLINK-5689","MEAN_MOTION_DOT":"-0.01188078","NORAD_CAT_ID":"55474","SEMIMAJOR_AXIS":"6899.835","EPHEMERIS_TYPE":"0","PERIOD":"95.064","CLASSIFICATION_TYPE":"U","RCS_SIZE":"LARGE","COUNTRY_CODE":"US","SITE":"AFETR","ECCENTRICITY":"0.00012400"},{"ECCENTRICITY":"0.00013150","COUNTRY_CODE":"US","SITE":"AFETR","EPHEMERIS_TYPE":"0","PERIOD":"92.218","CLASSIFICATION_TYPE":"U","RCS_SIZE":"LARGE","OBJECT_NAME":"STARLINK-5650","NORAD_CAT_ID":"55475","MEAN_MOTION_DOT":"-0.00867784","SEMIMAJOR_AXIS":"6761.397","TIME_SYSTEM":"UTC","OBJECT_ID":"2023-015AC","MEAN_ANOMALY":"301.7861","REV_AT_EPOCH":"130","GP_ID":"228479001","REF_FRAME":"TEME","MEAN_MOTION":"15.61521847","OBJECT_TYPE":"PAYLOAD","TLE_LINE2":"2 55475  43.0008 114.0140 0001315 264.6210 301.7861 15.61521847  1305","TLE_LINE1":"1 55475U 23015AC  23078.91667824 -.00867784  00000-0 -10780-1 0  9999","MEAN_MOTION_DDOT":"0.0000000000000","BSTAR":"-0.01078000000000","RA_OF_ASC_NODE":"114.0140","INCLINATION":"43.0008","PERIAPSIS":"382.373","CENTER_NAME":"EARTH","EPOCH":"2023-03-19T22:00:00.999936","DECAY_DATE":null,"ARG_OF_PERICENTER":"264.6210","LAUNCH_DATE":"2023-02-02","MEAN_ELEMENT_THEORY":"SGP4","ELEMENT_SET_NO":"999","FILE":"3865354","APOAPSIS":"384.152"},{"MEAN_MOTION_DOT":"0.00051423","OBJECT_NAME":"STARLINK-5596","NORAD_CAT_ID":"55476","SEMIMAJOR_AXIS":"6731.366","PERIOD":"91.604","EPHEMERIS_TYPE":"0","RCS_SIZE":"LARGE","CLASSIFICATION_TYPE":"U","SITE":"AFETR","COUNTRY_CODE":"US","ECCENTRICITY":"0.00011880","REV_AT_EPOCH":"729","GP_ID":"228479251","REF_FRAME":"TEME","TIME_SYSTEM":"UTC","MEAN_ANOMALY":"92.6395","OBJECT_ID":"2023-015AD","RA_OF_ASC_NODE":"114.4252","CENTER_NAME":"EARTH","PERIAPSIS":"352.431","INCLINATION":"43.0018","TLE_LINE1":"1 55476U 23015AD  23078.57454938  .00051423  00000-0  38289-3 0  9991","BSTAR":"0.00038289000000","MEAN_MOTION_DDOT":"0.0000000000000","TLE_LINE2":"2 55476  43.0018 114.4252 0001188 267.4337  92.6395 15.71983474  7295","OBJECT_TYPE":"PAYLOAD","MEAN_MOTION":"15.71983474","FILE":"3865354","APOAPSIS":"354.030","ELEMENT_SET_NO":"999","LAUNCH_DATE":"2023-02-02","MEAN_ELEMENT_THEORY":"SGP4","DECAY_DATE":null,"ARG_OF_PERICENTER":"267.4337","EPOCH":"2023-03-19T13:47:21.066432"},{"SEMIMAJOR_AXIS":"6733.165","OBJECT_NAME":"STARLINK-5685","NORAD_CAT_ID":"55477","MEAN_MOTION_DOT":"-0.00000385","RCS_SIZE":"LARGE","CLASSIFICATION_TYPE":"U","PERIOD":"91.641","EPHEMERIS_TYPE":"0","SITE":"AFETR","COUNTRY_CODE":"US","ECCENTRICITY":"0.00008240","REF_FRAME":"TEME","GP_ID":"228480003","REV_AT_EPOCH":"731","MEAN_ANOMALY":"18.6589","OBJECT_ID":"2023-015AE","TIME_SYSTEM":"UTC","PERIAPSIS":"354.475","CENTER_NAME":"EARTH","INCLINATION":"43.0034","RA_OF_ASC_NODE":"114.4877","BSTAR":"0.00000050454000","MEAN_MOTION_DDOT":"0.0000000000000","TLE_LINE1":"1 55477U 23015AE  23078.80065662 -.00000385  00000-0  50454-6 0  9993","TLE_LINE2":"2 55477  43.0034 114.4877 0000824 341.4248  18.6589 15.71353465  7314","OBJECT_TYPE":"PAYLOAD","MEAN_MOTION":"15.71353465","APOAPSIS":"355.585","FILE":"3865354","ELEMENT_SET_NO":"999","LAUNCH_DATE":"2023-02-02","MEAN_ELEMENT_THEORY":"SGP4","DECAY_DATE":null,"ARG_OF_PERICENTER":"341.4248","EPOCH":"2023-03-19T19:12:56.731968"}];
